CCSDS_OMM_VERS = 2.0
CREATION_DATE  = 
ORIGINATOR     = 

OBJECT_NAME    = COSMOS 2600
OBJECT_ID      = 2026-023A
CENTER_NAME    = EARTH
REF_FRAME      = TEME
TIME_SYSTEM    = UTC
MEAN_ELEMENT_THEORY = SGP/SGP4

EPOCH          = 2026-02-10T11:11:23.743392
MEAN_MOTION    = 15.81640853
ECCENTRICITY   = .0002083
INCLINATION    = 96.6495
RA_OF_ASC_NODE = 117.9652
ARG_OF_PERICENTER = 68.6277
MEAN_ANOMALY   = 291.5215

EPHEMERIS_TYPE = 0
CLASSIFICATION_TYPE = U
NORAD_CAT_ID   = 67674
ELEMENT_SET_NO = 999
REV_AT_EPOCH   = 74
BSTAR          = .34439E-3
MEAN_MOTION_DOT = .68915E-3
MEAN_MOTION_DDOT = 0

CCSDS_OMM_VERS = 2.0
CREATION_DATE  = 
ORIGINATOR     = 

OBJECT_NAME    = 2026-023B
OBJECT_ID      = 2026-023B
CENTER_NAME    = EARTH
REF_FRAME      = TEME
TIME_SYSTEM    = UTC
MEAN_ELEMENT_THEORY = SGP/SGP4

EPOCH          = 2026-02-06T19:57:35.390304
MEAN_MOTION    = 15.22205300
ECCENTRICITY   = .00172194
INCLINATION    = 96.6397
RA_OF_ASC_NODE = 114.3547
ARG_OF_PERICENTER = 239.3232
MEAN_ANOMALY   = 120.6310

EPHEMERIS_TYPE = 0
CLASSIFICATION_TYPE = U
NORAD_CAT_ID   = 67675
ELEMENT_SET_NO = 999
REV_AT_EPOCH   = 16
BSTAR          = .13032448E-3
MEAN_MOTION_DOT = .2946E-4
MEAN_MOTION_DDOT = 0

CCSDS_OMM_VERS = 2.0
CREATION_DATE  = 
ORIGINATOR     = 

OBJECT_NAME    = 2026-023C
OBJECT_ID      = 2026-023C
CENTER_NAME    = EARTH
REF_FRAME      = TEME
TIME_SYSTEM    = UTC
MEAN_ELEMENT_THEORY = SGP/SGP4

EPOCH          = 2026-02-06T19:57:33.691680
MEAN_MOTION    = 15.22258115
ECCENTRICITY   = .0018177
INCLINATION    = 96.6444
RA_OF_ASC_NODE = 114.3671
ARG_OF_PERICENTER = 231.2308
MEAN_ANOMALY   = 128.7307

EPHEMERIS_TYPE = 0
CLASSIFICATION_TYPE = U
NORAD_CAT_ID   = 67676
ELEMENT_SET_NO = 999
REV_AT_EPOCH   = 15
BSTAR          = .27219E-3
MEAN_MOTION_DOT = .6231E-4
MEAN_MOTION_DDOT = 0

CCSDS_OMM_VERS = 2.0
CREATION_DATE  = 
ORIGINATOR     = 

OBJECT_NAME    = 2026-023D
OBJECT_ID      = 2026-023D
CENTER_NAME    = EARTH
REF_FRAME      = TEME
TIME_SYSTEM    = UTC
MEAN_ELEMENT_THEORY = SGP/SGP4

EPOCH          = 2026-02-10T12:18:40.244256
MEAN_MOTION    = 15.22250086
ECCENTRICITY   = .0018595
INCLINATION    = 96.6476
RA_OF_ASC_NODE = 117.6057
ARG_OF_PERICENTER = 222.8552
MEAN_ANOMALY   = 137.1238

EPHEMERIS_TYPE = 0
CLASSIFICATION_TYPE = U
NORAD_CAT_ID   = 67677
ELEMENT_SET_NO = 999
REV_AT_EPOCH   = 71
BSTAR          = .47445E-3
MEAN_MOTION_DOT = .10911E-3
MEAN_MOTION_DDOT = 0

CCSDS_OMM_VERS = 2.0
CREATION_DATE  = 
ORIGINATOR     = 

OBJECT_NAME    = 2026-023E
OBJECT_ID      = 2026-023E
CENTER_NAME    = EARTH
REF_FRAME      = TEME
TIME_SYSTEM    = UTC
MEAN_ELEMENT_THEORY = SGP/SGP4

EPOCH          = 2026-02-06T19:57:34.936704
MEAN_MOTION    = 15.22227869
ECCENTRICITY   = .00181635
INCLINATION    = 96.6374
RA_OF_ASC_NODE = 114.3623
ARG_OF_PERICENTER = 237.2347
MEAN_ANOMALY   = 122.7142

EPHEMERIS_TYPE = 0
CLASSIFICATION_TYPE = U
NORAD_CAT_ID   = 67678
ELEMENT_SET_NO = 999
REV_AT_EPOCH   = 15
BSTAR          = .27128471E-3
MEAN_MOTION_DOT = .6205E-4
MEAN_MOTION_DDOT = 0

CCSDS_OMM_VERS = 2.0
CREATION_DATE  = 
ORIGINATOR     = 

OBJECT_NAME    = 2026-023F
OBJECT_ID      = 2026-023F
CENTER_NAME    = EARTH
REF_FRAME      = TEME
TIME_SYSTEM    = UTC
MEAN_ELEMENT_THEORY = SGP/SGP4

EPOCH          = 2026-02-06T19:57:21.808224
MEAN_MOTION    = 15.22365211
ECCENTRICITY   = .00208985
INCLINATION    = 96.6417
RA_OF_ASC_NODE = 116.8559
ARG_OF_PERICENTER = 224.4168
MEAN_ANOMALY   = 135.5395

EPHEMERIS_TYPE = 0
CLASSIFICATION_TYPE = U
NORAD_CAT_ID   = 67679
ELEMENT_SET_NO = 999
REV_AT_EPOCH   = 14
BSTAR          = .28069334E-3
MEAN_MOTION_DOT = .6457E-4
MEAN_MOTION_DDOT = 0

CCSDS_OMM_VERS = 2.0
CREATION_DATE  = 
ORIGINATOR     = 

OBJECT_NAME    = 2026-023G
OBJECT_ID      = 2026-023G
CENTER_NAME    = EARTH
REF_FRAME      = TEME
TIME_SYSTEM    = UTC
MEAN_ELEMENT_THEORY = SGP/SGP4

EPOCH          = 2026-02-07T19:37:07.334400
MEAN_MOTION    = 15.22204274
ECCENTRICITY   = .00196587
INCLINATION    = 96.6263
RA_OF_ASC_NODE = 117.7523
ARG_OF_PERICENTER = 223.6722
MEAN_ANOMALY   = 136.2962

EPHEMERIS_TYPE = 0
CLASSIFICATION_TYPE = U
NORAD_CAT_ID   = 67680
ELEMENT_SET_NO = 999
REV_AT_EPOCH   = 29
BSTAR          = .18946201E-3
MEAN_MOTION_DOT = .4315E-4
MEAN_MOTION_DDOT = 0

CCSDS_OMM_VERS = 2.0
CREATION_DATE  = 
ORIGINATOR     = 

OBJECT_NAME    = 2026-023H
OBJECT_ID      = 2026-023H
CENTER_NAME    = EARTH
REF_FRAME      = TEME
TIME_SYSTEM    = UTC
MEAN_ELEMENT_THEORY = SGP/SGP4

EPOCH          = 2026-02-06T19:57:24.636960
MEAN_MOTION    = 15.22318667
ECCENTRICITY   = .00215558
INCLINATION    = 96.6335
RA_OF_ASC_NODE = 116.8614
ARG_OF_PERICENTER = 226.9356
MEAN_ANOMALY   = 133.0079

EPHEMERIS_TYPE = 0
CLASSIFICATION_TYPE = U
NORAD_CAT_ID   = 67681
ELEMENT_SET_NO = 999
REV_AT_EPOCH   = 14
BSTAR          = .28069323E-3
MEAN_MOTION_DOT = .6451E-4
MEAN_MOTION_DDOT = 0

CCSDS_OMM_VERS = 2.0
CREATION_DATE  = 
ORIGINATOR     = 

OBJECT_NAME    = 2026-023J
OBJECT_ID      = 2026-023J
CENTER_NAME    = EARTH
REF_FRAME      = TEME
TIME_SYSTEM    = UTC
MEAN_ELEMENT_THEORY = SGP/SGP4

EPOCH          = 2026-02-06T19:57:21.610368
MEAN_MOTION    = 15.22391354
ECCENTRICITY   = .00211195
INCLINATION    = 96.6412
RA_OF_ASC_NODE = 116.8562
ARG_OF_PERICENTER = 228.0113
MEAN_ANOMALY   = 131.9327

EPHEMERIS_TYPE = 0
CLASSIFICATION_TYPE = U
NORAD_CAT_ID   = 67682
ELEMENT_SET_NO = 999
REV_AT_EPOCH   = 14
BSTAR          = .28055052E-3
MEAN_MOTION_DOT = .646E-4
MEAN_MOTION_DDOT = 0

CCSDS_OMM_VERS = 2.0
CREATION_DATE  = 
ORIGINATOR     = 

OBJECT_NAME    = ISS OBJECT XZ
OBJECT_ID      = 1998-067XZ
CENTER_NAME    = EARTH
REF_FRAME      = TEME
TIME_SYSTEM    = UTC
MEAN_ELEMENT_THEORY = SGP/SGP4

EPOCH          = 2026-02-10T11:13:06.314880
MEAN_MOTION    = 15.49613290
ECCENTRICITY   = .0010876
INCLINATION    = 51.6304
RA_OF_ASC_NODE = 206.8773
ARG_OF_PERICENTER = 99.0096
MEAN_ANOMALY   = 261.2124

EPHEMERIS_TYPE = 0
CLASSIFICATION_TYPE = U
NORAD_CAT_ID   = 67683
ELEMENT_SET_NO = 999
REV_AT_EPOCH   = 56
BSTAR          = .62572E-3
MEAN_MOTION_DOT = .35E-3
MEAN_MOTION_DDOT = 0

CCSDS_OMM_VERS = 2.0
CREATION_DATE  = 
ORIGINATOR     = 

OBJECT_NAME    = GXIBA-1
OBJECT_ID      = 1998-067YA
CENTER_NAME    = EARTH
REF_FRAME      = TEME
TIME_SYSTEM    = UTC
MEAN_ELEMENT_THEORY = SGP/SGP4

EPOCH          = 2026-02-10T11:10:50.298816
MEAN_MOTION    = 15.50183981
ECCENTRICITY   = .0012743
INCLINATION    = 51.6304
RA_OF_ASC_NODE = 206.8683
ARG_OF_PERICENTER = 93.6445
MEAN_ANOMALY   = 266.6001

EPHEMERIS_TYPE = 0
CLASSIFICATION_TYPE = U
NORAD_CAT_ID   = 67684
ELEMENT_SET_NO = 999
REV_AT_EPOCH   = 56
BSTAR          = .1143E-2
MEAN_MOTION_DOT = .6595E-3
MEAN_MOTION_DDOT = 0

CCSDS_OMM_VERS = 2.0
CREATION_DATE  = 
ORIGINATOR     = 

OBJECT_NAME    = CORAL
OBJECT_ID      = 1998-067YB
CENTER_NAME    = EARTH
REF_FRAME      = TEME
TIME_SYSTEM    = UTC
MEAN_ELEMENT_THEORY = SGP/SGP4

EPOCH          = 2026-02-10T11:12:36.193248
MEAN_MOTION    = 15.49728993
ECCENTRICITY   = .0012806
INCLINATION    = 51.6305
RA_OF_ASC_NODE = 206.8754
ARG_OF_PERICENTER = 94.3864
MEAN_ANOMALY   = 265.8588

EPHEMERIS_TYPE = 0
CLASSIFICATION_TYPE = U
NORAD_CAT_ID   = 67685
ELEMENT_SET_NO = 999
REV_AT_EPOCH   = 56
BSTAR          = .73274E-3
MEAN_MOTION_DOT = .41304E-3
MEAN_MOTION_DDOT = 0

